CCSDS_OMM_VERS = 2.0
CREATION_DATE  = 
ORIGINATOR     = 

OBJECT_NAME    = SL-3 R/B
OBJECT_ID      = 1982-079B
CENTER_NAME    = EARTH
REF_FRAME      = TEME
TIME_SYSTEM    = UTC
MEAN_ELEMENT_THEORY = SGP/SGP4

EPOCH          = 2026-02-05T15:18:02.595456
MEAN_MOTION    = 15.24334754
ECCENTRICITY   = .00241377
INCLINATION    = 81.1436
RA_OF_ASC_NODE = 230.9130
ARG_OF_PERICENTER = 275.2826
MEAN_ANOMALY   = 84.5652

EPHEMERIS_TYPE = 0
CLASSIFICATION_TYPE = U
NORAD_CAT_ID   = 13403
ELEMENT_SET_NO = 999
REV_AT_EPOCH   = 37281
BSTAR          = .32864576E-3
MEAN_MOTION_DOT = .8131E-4
MEAN_MOTION_DDOT = 0

CCSDS_OMM_VERS = 2.0
CREATION_DATE  = 
ORIGINATOR     = 

OBJECT_NAME    = SL-14 R/B
OBJECT_ID      = 1982-092B
CENTER_NAME    = EARTH
REF_FRAME      = TEME
TIME_SYSTEM    = UTC
MEAN_ELEMENT_THEORY = SGP/SGP4

EPOCH          = 2026-02-05T15:55:07.925088
MEAN_MOTION    = 14.86630619
ECCENTRICITY   = .00215046
INCLINATION    = 82.5699
RA_OF_ASC_NODE = 171.3452
ARG_OF_PERICENTER = 50.3850
MEAN_ANOMALY   = 320.6667

EPHEMERIS_TYPE = 0
CLASSIFICATION_TYPE = U
NORAD_CAT_ID   = 13553
ELEMENT_SET_NO = 999
REV_AT_EPOCH   = 32417
BSTAR          = .96936086E-4
MEAN_MOTION_DOT = .888E-5
MEAN_MOTION_DDOT = 0

CCSDS_OMM_VERS = 2.0
CREATION_DATE  = 
ORIGINATOR     = 

OBJECT_NAME    = SL-3 R/B
OBJECT_ID      = 1983-010B
CENTER_NAME    = EARTH
REF_FRAME      = TEME
TIME_SYSTEM    = UTC
MEAN_ELEMENT_THEORY = SGP/SGP4

EPOCH          = 2026-02-05T09:27:09.849600
MEAN_MOTION    = 15.45216273
ECCENTRICITY   = .00177094
INCLINATION    = 81.1020
RA_OF_ASC_NODE = 41.8091
ARG_OF_PERICENTER = 154.1595
MEAN_ANOMALY   = 206.0538

EPHEMERIS_TYPE = 0
CLASSIFICATION_TYPE = U
NORAD_CAT_ID   = 13819
ELEMENT_SET_NO = 999
REV_AT_EPOCH   = 35295
BSTAR          = .42770359E-3
MEAN_MOTION_DOT = .20484E-3
MEAN_MOTION_DDOT = 0

CCSDS_OMM_VERS = 2.0
CREATION_DATE  = 
ORIGINATOR     = 

OBJECT_NAME    = SL-3 R/B
OBJECT_ID      = 1983-075B
CENTER_NAME    = EARTH
REF_FRAME      = TEME
TIME_SYSTEM    = UTC
MEAN_ELEMENT_THEORY = SGP/SGP4

EPOCH          = 2026-02-05T16:14:26.215584
MEAN_MOTION    = 15.37585127
ECCENTRICITY   = .00215199
INCLINATION    = 97.6131
RA_OF_ASC_NODE = 40.0678
ARG_OF_PERICENTER = 349.9237
MEAN_ANOMALY   = 10.1573

EPHEMERIS_TYPE = 0
CLASSIFICATION_TYPE = U
NORAD_CAT_ID   = 14208
ELEMENT_SET_NO = 999
REV_AT_EPOCH   = 32523
BSTAR          = .49620531E-3
MEAN_MOTION_DOT = .18378E-3
MEAN_MOTION_DDOT = 0

CCSDS_OMM_VERS = 2.0
CREATION_DATE  = 
ORIGINATOR     = 

OBJECT_NAME    = COSMOS 1536
OBJECT_ID      = 1984-013A
CENTER_NAME    = EARTH
REF_FRAME      = TEME
TIME_SYSTEM    = UTC
MEAN_ELEMENT_THEORY = SGP/SGP4

EPOCH          = 2026-02-05T16:04:53.336064
MEAN_MOTION    = 15.23398228
ECCENTRICITY   = .00150719
INCLINATION    = 82.5478
RA_OF_ASC_NODE = 139.6609
ARG_OF_PERICENTER = 39.6913
MEAN_ANOMALY   = 320.5423

EPHEMERIS_TYPE = 0
CLASSIFICATION_TYPE = U
NORAD_CAT_ID   = 14699
ELEMENT_SET_NO = 999
REV_AT_EPOCH   = 26774
BSTAR          = .44557799E-3
MEAN_MOTION_DOT = .10667E-3
MEAN_MOTION_DDOT = 0

CCSDS_OMM_VERS = 2.0
CREATION_DATE  = 
ORIGINATOR     = 

OBJECT_NAME    = SL-14 R/B
OBJECT_ID      = 1984-027B
CENTER_NAME    = EARTH
REF_FRAME      = TEME
TIME_SYSTEM    = UTC
MEAN_ELEMENT_THEORY = SGP/SGP4

EPOCH          = 2026-02-05T15:21:51.881184
MEAN_MOTION    = 14.85945348
ECCENTRICITY   = .00195416
INCLINATION    = 82.5403
RA_OF_ASC_NODE = 275.0776
ARG_OF_PERICENTER = 80.3754
MEAN_ANOMALY   = 279.9670

EPHEMERIS_TYPE = 0
CLASSIFICATION_TYPE = U
NORAD_CAT_ID   = 14820
ELEMENT_SET_NO = 999
REV_AT_EPOCH   = 24287
BSTAR          = .70801192E-4
MEAN_MOTION_DOT = .644E-5
MEAN_MOTION_DDOT = 0

CCSDS_OMM_VERS = 2.0
CREATION_DATE  = 
ORIGINATOR     = 

OBJECT_NAME    = SL-8 R/B
OBJECT_ID      = 1985-006B
CENTER_NAME    = EARTH
REF_FRAME      = TEME
TIME_SYSTEM    = UTC
MEAN_ELEMENT_THEORY = SGP/SGP4

EPOCH          = 2026-02-05T12:48:21.933216
MEAN_MOTION    = 14.37766872
ECCENTRICITY   = .00195941
INCLINATION    = 74.0475
RA_OF_ASC_NODE = 320.3172
ARG_OF_PERICENTER = 244.2216
MEAN_ANOMALY   = 288.5106

EPHEMERIS_TYPE = 0
CLASSIFICATION_TYPE = U
NORAD_CAT_ID   = 15483
ELEMENT_SET_NO = 999
REV_AT_EPOCH   = 14940
BSTAR          = .12905282E-3
MEAN_MOTION_DOT = .363E-5
MEAN_MOTION_DDOT = 0

CCSDS_OMM_VERS = 2.0
CREATION_DATE  = 
ORIGINATOR     = 

OBJECT_NAME    = SL-12 R/B(2)
OBJECT_ID      = 1985-042D
CENTER_NAME    = EARTH
REF_FRAME      = TEME
TIME_SYSTEM    = UTC
MEAN_ELEMENT_THEORY = SGP/SGP4

EPOCH          = 2026-02-05T16:40:18.770880
MEAN_MOTION    = 14.21973171
ECCENTRICITY   = .00351332
INCLINATION    = 71.1085
RA_OF_ASC_NODE = 155.3233
ARG_OF_PERICENTER = 179.2155
MEAN_ANOMALY   = 282.3411

EPHEMERIS_TYPE = 0
CLASSIFICATION_TYPE = U
NORAD_CAT_ID   = 15772
ELEMENT_SET_NO = 999
REV_AT_EPOCH   = 10984
BSTAR          = .88543428E-4
MEAN_MOTION_DOT = .149E-5
MEAN_MOTION_DDOT = 0

CCSDS_OMM_VERS = 2.0
CREATION_DATE  = 
ORIGINATOR     = 

OBJECT_NAME    = SL-14 R/B
OBJECT_ID      = 1985-069B
CENTER_NAME    = EARTH
REF_FRAME      = TEME
TIME_SYSTEM    = UTC
MEAN_ELEMENT_THEORY = SGP/SGP4

EPOCH          = 2026-02-05T13:36:58.747968
MEAN_MOTION    = 14.86395538
ECCENTRICITY   = .00174218
INCLINATION    = 82.5240
RA_OF_ASC_NODE = 55.1457
ARG_OF_PERICENTER = 301.5528
MEAN_ANOMALY   = 58.3987

EPHEMERIS_TYPE = 0
CLASSIFICATION_TYPE = U
NORAD_CAT_ID   = 15945
ELEMENT_SET_NO = 999
REV_AT_EPOCH   = 16806
BSTAR          = .8091273E-4
MEAN_MOTION_DOT = .739E-5
MEAN_MOTION_DDOT = 0

CCSDS_OMM_VERS = 2.0
CREATION_DATE  = 
ORIGINATOR     = 

OBJECT_NAME    = SL-16 R/B
OBJECT_ID      = 1985-097B
CENTER_NAME    = EARTH
REF_FRAME      = TEME
TIME_SYSTEM    = UTC
MEAN_ELEMENT_THEORY = SGP/SGP4

EPOCH          = 2026-02-05T13:48:56.997216
MEAN_MOTION    = 14.16596122
ECCENTRICITY   = .00094677
INCLINATION    = 71.0013
RA_OF_ASC_NODE = 208.1586
ARG_OF_PERICENTER = 297.3213
MEAN_ANOMALY   = 125.5013

EPHEMERIS_TYPE = 0
CLASSIFICATION_TYPE = U
NORAD_CAT_ID   = 16182
ELEMENT_SET_NO = 999
REV_AT_EPOCH   = 8268
BSTAR          = .63516916E-4
MEAN_MOTION_DOT = .79E-6
MEAN_MOTION_DDOT = 0

CCSDS_OMM_VERS = 2.0
CREATION_DATE  = 
ORIGINATOR     = 

OBJECT_NAME    = SL-14 R/B
OBJECT_ID      = 1986-006B
CENTER_NAME    = EARTH
REF_FRAME      = TEME
TIME_SYSTEM    = UTC
MEAN_ELEMENT_THEORY = SGP/SGP4

EPOCH          = 2026-02-05T16:29:55.291200
MEAN_MOTION    = 14.86771096
ECCENTRICITY   = .00772104
INCLINATION    = 82.5272
RA_OF_ASC_NODE = 289.8581
ARG_OF_PERICENTER = 19.9131
MEAN_ANOMALY   = 340.5069

EPHEMERIS_TYPE = 0
CLASSIFICATION_TYPE = U
NORAD_CAT_ID   = 16496
ELEMENT_SET_NO = 999
REV_AT_EPOCH   = 14445
BSTAR          = .11539219E-3
MEAN_MOTION_DOT = .1111E-4
MEAN_MOTION_DDOT = 0

CCSDS_OMM_VERS = 2.0
CREATION_DATE  = 
ORIGINATOR     = 

OBJECT_NAME    = COSMOS 1743
OBJECT_ID      = 1986-034A
CENTER_NAME    = EARTH
REF_FRAME      = TEME
TIME_SYSTEM    = UTC
MEAN_ELEMENT_THEORY = SGP/SGP4

EPOCH          = 2026-02-05T15:26:40.648992
MEAN_MOTION    = 15.56238865
ECCENTRICITY   = .00051968
INCLINATION    = 82.5331
RA_OF_ASC_NODE = 107.4001
ARG_OF_PERICENTER = 60.5247
MEAN_ANOMALY   = 299.6526

EPHEMERIS_TYPE = 0
CLASSIFICATION_TYPE = U
NORAD_CAT_ID   = 16719
ELEMENT_SET_NO = 999
REV_AT_EPOCH   = 17526
BSTAR          = .6910653E-3
MEAN_MOTION_DOT = .48739E-3
MEAN_MOTION_DDOT = 0

