SL-3 R/B                
1 13403U 82079B   26036.63753004  .00008131  00000+0  32865-3 0  9991
2 13403  81.1436 230.9130 0024137 275.2826  84.5652 15.24334754372812
SL-14 R/B               
1 13553U 82092B   26036.66328617  .00000888  00000+0  96936-4 0  9994
2 13553  82.5699 171.3452 0021504  50.3850 320.6667 14.86630619324175
SL-3 R/B                
1 13819U 83010B   26036.39386400  .00020484  00000+0  42770-3 0  9994
2 13819  81.1020  41.8091 0017709 154.1595 206.0538 15.45216273352957
SL-3 R/B                
1 14208U 83075B   26036.67669231  .00018378  00000+0  49621-3 0  9996
2 14208  97.6131  40.0678 0021519 349.9237  10.1573 15.37585127325230
COSMOS 1536             
1 14699U 84013A   26036.67006176  .00010667  00000+0  44558-3 0  9993
2 14699  82.5478 139.6609 0015071  39.6913 320.5423 15.23398228267742
SL-14 R/B               
1 14820U 84027B   26036.64018381  .00000644  00000+0  70801-4 0  9997
2 14820  82.5403 275.0776 0019541  80.3754 279.9670 14.85945348242874
SL-8 R/B                
1 15483U 85006B   26036.53358719  .00000363  00000+0  12905-3 0  9999
2 15483  74.0475 320.3172 0019594 244.2216 288.5106 14.37766872149406
SL-12 R/B(2)            
1 15772U 85042D   26036.69466170  .00000149  00000+0  88543-4 0  9992
2 15772  71.1085 155.3233 0035133 179.2155 282.3411 14.21973171109842
SL-14 R/B               
1 15945U 85069B   26036.56734662  .00000739  00000+0  80913-4 0  9991
2 15945  82.5240  55.1457 0017421 301.5528  58.3987 14.86395538168066
SL-16 R/B               
1 16182U 85097B   26036.57565969  .00000079  00000+0  63517-4 0  9997
2 16182  71.0013 208.1586 0009467 297.3213 125.5013 14.16596122 82683
SL-14 R/B               
1 16496U 86006B   26036.68744550  .00001111  00000+0  11539-3 0  9997
2 16496  82.5272 289.8581 0077210  19.9131 340.5069 14.86771096144450
COSMOS 1743             
1 16719U 86034A   26036.64352603  .00048739  00000+0  69107-3 0  9997
2 16719  82.5331 107.4001 0005196  60.5247 299.6526 15.56238865175265
